SL-14 R/B               
1 16792U 86046B   25360.65796397  .00000629  00000+0  69679-4 0  9994
2 16792  82.4819 149.1696 0024563 108.3772 252.0118 14.85499845115567
SL-14 R/B               
1 16882U 86055B   25360.58710685  .00000529  00000+0  58334-4 0  9997
2 16882  82.5193 195.3606 0018118 210.3029 204.0760 14.85543880108511
AJISAI (EGS)            
1 16908U 86061A   25360.86908660 -.00000089  00000+0  60950-4 0  9995
2 16908  50.0112 317.2707 0011313 101.3686 292.1435 12.44514433458932
COSMOS 1812             
1 17295U 87003A   25360.81789260  .00122646  00000+0  70048-3 0  9991
2 17295  82.4865 276.7457 0006050  66.1662 294.0238 15.78495058132876
SL-14 R/B               
1 17567U 87024B   25360.85253203  .00000644  00000+0  70632-4 0  9996
2 17567  82.5278 161.1965 0019255 138.5769 221.6911 14.86038820 77310
COSMOS 1833             
1 17589U 87027A   25360.73439462  .00000305  00000+0  18889-3 0  9992
2 17589  70.9166 119.3587 0023160 312.2070  47.7085 14.13029209    15
SL-16 R/B               
1 17590U 87027B   25360.63712411 -.00000137  00000+0 -44238-4 0  9994
2 17590  71.0038  70.4347 0007200 245.3170 114.7205 14.17156470  4997
SL-14 R/B               
1 17912U 87038B   25360.74265641  .00000547  00000+0  60649-4 0  9991
2 17912  82.5009   5.5103 0020502  49.0312 311.2673 14.85274174 68402
COSMOS 1844             
1 17973U 87041A   25360.84660321  .00000347  00000+0  20526-3 0  9994
2 17973  70.8969 187.8170 0029466 134.7790 225.5736 14.14532771993284
SL-14 R/B               
1 18153U 87055B   25360.19321821  .00000522  00000+0  57448-4 0  9996
2 18153  82.4991  58.3093 0019198 255.4215 104.4872 14.85534596 59025
COSMOS 1867             
1 18187U 87060A   25360.78491657  .00000015  00000+0  43283-4 0  9998
2 18187  65.0093 150.8701 0013668 272.4787  87.4732 14.31488422  9505
SL-14 R/B               
1 18749U 88001B   25360.72261778  .00000520  00000+0  57343-4 0  9994
2 18749  82.5133 263.9965 0019452 117.2678 243.0522 14.85438040 31195
