CCSDS_OMM_VERS = 2.0
CREATION_DATE  = 
ORIGINATOR     = 

OBJECT_NAME    = SL-14 R/B
OBJECT_ID      = 1986-046B
CENTER_NAME    = EARTH
REF_FRAME      = TEME
TIME_SYSTEM    = UTC
MEAN_ELEMENT_THEORY = SGP/SGP4

EPOCH          = 2025-12-26T15:47:28.087008
MEAN_MOTION    = 14.85499845
ECCENTRICITY   = .0024563
INCLINATION    = 82.4819
RA_OF_ASC_NODE = 149.1696
ARG_OF_PERICENTER = 108.3772
MEAN_ANOMALY   = 252.0118

EPHEMERIS_TYPE = 0
CLASSIFICATION_TYPE = U
NORAD_CAT_ID   = 16792
ELEMENT_SET_NO = 999
REV_AT_EPOCH   = 11556
BSTAR          = .69679E-4
MEAN_MOTION_DOT = .629E-5
MEAN_MOTION_DDOT = 0

CCSDS_OMM_VERS = 2.0
CREATION_DATE  = 
ORIGINATOR     = 

OBJECT_NAME    = SL-14 R/B
OBJECT_ID      = 1986-055B
CENTER_NAME    = EARTH
REF_FRAME      = TEME
TIME_SYSTEM    = UTC
MEAN_ELEMENT_THEORY = SGP/SGP4

EPOCH          = 2025-12-26T14:05:26.031840
MEAN_MOTION    = 14.85543880
ECCENTRICITY   = .0018118
INCLINATION    = 82.5193
RA_OF_ASC_NODE = 195.3606
ARG_OF_PERICENTER = 210.3029
MEAN_ANOMALY   = 204.0760

EPHEMERIS_TYPE = 0
CLASSIFICATION_TYPE = U
NORAD_CAT_ID   = 16882
ELEMENT_SET_NO = 999
REV_AT_EPOCH   = 10851
BSTAR          = .58334E-4
MEAN_MOTION_DOT = .529E-5
MEAN_MOTION_DDOT = 0

CCSDS_OMM_VERS = 2.0
CREATION_DATE  = 
ORIGINATOR     = 

OBJECT_NAME    = AJISAI (EGS)
OBJECT_ID      = 1986-061A
CENTER_NAME    = EARTH
REF_FRAME      = TEME
TIME_SYSTEM    = UTC
MEAN_ELEMENT_THEORY = SGP/SGP4

EPOCH          = 2025-12-26T20:51:29.082240
MEAN_MOTION    = 12.44514433
ECCENTRICITY   = .0011313
INCLINATION    = 50.0112
RA_OF_ASC_NODE = 317.2707
ARG_OF_PERICENTER = 101.3686
MEAN_ANOMALY   = 292.1435

EPHEMERIS_TYPE = 0
CLASSIFICATION_TYPE = U
NORAD_CAT_ID   = 16908
ELEMENT_SET_NO = 999
REV_AT_EPOCH   = 45893
BSTAR          = .6095E-4
MEAN_MOTION_DOT = -.89E-6
MEAN_MOTION_DDOT = 0

CCSDS_OMM_VERS = 2.0
CREATION_DATE  = 
ORIGINATOR     = 

OBJECT_NAME    = COSMOS 1812
OBJECT_ID      = 1987-003A
CENTER_NAME    = EARTH
REF_FRAME      = TEME
TIME_SYSTEM    = UTC
MEAN_ELEMENT_THEORY = SGP/SGP4

EPOCH          = 2025-12-26T19:37:45.920640
MEAN_MOTION    = 15.78495058
ECCENTRICITY   = .000605
INCLINATION    = 82.4865
RA_OF_ASC_NODE = 276.7457
ARG_OF_PERICENTER = 66.1662
MEAN_ANOMALY   = 294.0238

EPHEMERIS_TYPE = 0
CLASSIFICATION_TYPE = U
NORAD_CAT_ID   = 17295
ELEMENT_SET_NO = 999
REV_AT_EPOCH   = 13287
BSTAR          = .70048E-3
MEAN_MOTION_DOT = .122646E-2
MEAN_MOTION_DDOT = 0

CCSDS_OMM_VERS = 2.0
CREATION_DATE  = 
ORIGINATOR     = 

OBJECT_NAME    = SL-14 R/B
OBJECT_ID      = 1987-024B
CENTER_NAME    = EARTH
REF_FRAME      = TEME
TIME_SYSTEM    = UTC
MEAN_ELEMENT_THEORY = SGP/SGP4

EPOCH          = 2025-12-26T20:27:38.767392
MEAN_MOTION    = 14.86038820
ECCENTRICITY   = .0019255
INCLINATION    = 82.5278
RA_OF_ASC_NODE = 161.1965
ARG_OF_PERICENTER = 138.5769
MEAN_ANOMALY   = 221.6911

EPHEMERIS_TYPE = 0
CLASSIFICATION_TYPE = U
NORAD_CAT_ID   = 17567
ELEMENT_SET_NO = 999
REV_AT_EPOCH   = 7731
BSTAR          = .70632E-4
MEAN_MOTION_DOT = .644E-5
MEAN_MOTION_DDOT = 0

CCSDS_OMM_VERS = 2.0
CREATION_DATE  = 
ORIGINATOR     = 

OBJECT_NAME    = COSMOS 1833
OBJECT_ID      = 1987-027A
CENTER_NAME    = EARTH
REF_FRAME      = TEME
TIME_SYSTEM    = UTC
MEAN_ELEMENT_THEORY = SGP/SGP4

EPOCH          = 2025-12-26T17:37:31.695168
MEAN_MOTION    = 14.13029209
ECCENTRICITY   = .002316
INCLINATION    = 70.9166
RA_OF_ASC_NODE = 119.3587
ARG_OF_PERICENTER = 312.2070
MEAN_ANOMALY   = 47.7085

EPHEMERIS_TYPE = 0
CLASSIFICATION_TYPE = U
NORAD_CAT_ID   = 17589
ELEMENT_SET_NO = 999
REV_AT_EPOCH   = 1
BSTAR          = .18889E-3
MEAN_MOTION_DOT = .305E-5
MEAN_MOTION_DDOT = 0

CCSDS_OMM_VERS = 2.0
CREATION_DATE  = 
ORIGINATOR     = 

OBJECT_NAME    = SL-16 R/B
OBJECT_ID      = 1987-027B
CENTER_NAME    = EARTH
REF_FRAME      = TEME
TIME_SYSTEM    = UTC
MEAN_ELEMENT_THEORY = SGP/SGP4

EPOCH          = 2025-12-26T15:17:27.523104
MEAN_MOTION    = 14.17156470
ECCENTRICITY   = .00072
INCLINATION    = 71.0038
RA_OF_ASC_NODE = 70.4347
ARG_OF_PERICENTER = 245.3170
MEAN_ANOMALY   = 114.7205

EPHEMERIS_TYPE = 0
CLASSIFICATION_TYPE = U
NORAD_CAT_ID   = 17590
ELEMENT_SET_NO = 999
REV_AT_EPOCH   = 499
BSTAR          = -.44238E-4
MEAN_MOTION_DOT = -.137E-5
MEAN_MOTION_DDOT = 0

CCSDS_OMM_VERS = 2.0
CREATION_DATE  = 
ORIGINATOR     = 

OBJECT_NAME    = SL-14 R/B
OBJECT_ID      = 1987-038B
CENTER_NAME    = EARTH
REF_FRAME      = TEME
TIME_SYSTEM    = UTC
MEAN_ELEMENT_THEORY = SGP/SGP4

EPOCH          = 2025-12-26T17:49:25.513824
MEAN_MOTION    = 14.85274174
ECCENTRICITY   = .0020502
INCLINATION    = 82.5009
RA_OF_ASC_NODE = 5.5103
ARG_OF_PERICENTER = 49.0312
MEAN_ANOMALY   = 311.2673

EPHEMERIS_TYPE = 0
CLASSIFICATION_TYPE = U
NORAD_CAT_ID   = 17912
ELEMENT_SET_NO = 999
REV_AT_EPOCH   = 6840
BSTAR          = .60649E-4
MEAN_MOTION_DOT = .547E-5
MEAN_MOTION_DDOT = 0

CCSDS_OMM_VERS = 2.0
CREATION_DATE  = 
ORIGINATOR     = 

OBJECT_NAME    = COSMOS 1844
OBJECT_ID      = 1987-041A
CENTER_NAME    = EARTH
REF_FRAME      = TEME
TIME_SYSTEM    = UTC
MEAN_ELEMENT_THEORY = SGP/SGP4

EPOCH          = 2025-12-26T20:19:06.517344
MEAN_MOTION    = 14.14532771
ECCENTRICITY   = .0029466
INCLINATION    = 70.8969
RA_OF_ASC_NODE = 187.8170
ARG_OF_PERICENTER = 134.7790
MEAN_ANOMALY   = 225.5736

EPHEMERIS_TYPE = 0
CLASSIFICATION_TYPE = U
NORAD_CAT_ID   = 17973
ELEMENT_SET_NO = 999
REV_AT_EPOCH   = 99328
BSTAR          = .20526E-3
MEAN_MOTION_DOT = .347E-5
MEAN_MOTION_DDOT = 0

CCSDS_OMM_VERS = 2.0
CREATION_DATE  = 
ORIGINATOR     = 

OBJECT_NAME    = SL-14 R/B
OBJECT_ID      = 1987-055B
CENTER_NAME    = EARTH
REF_FRAME      = TEME
TIME_SYSTEM    = UTC
MEAN_ELEMENT_THEORY = SGP/SGP4

EPOCH          = 2025-12-26T04:38:14.053344
MEAN_MOTION    = 14.85534596
ECCENTRICITY   = .0019198
INCLINATION    = 82.4991
RA_OF_ASC_NODE = 58.3093
ARG_OF_PERICENTER = 255.4215
MEAN_ANOMALY   = 104.4872

EPHEMERIS_TYPE = 0
CLASSIFICATION_TYPE = U
NORAD_CAT_ID   = 18153
ELEMENT_SET_NO = 999
REV_AT_EPOCH   = 5902
BSTAR          = .57448E-4
MEAN_MOTION_DOT = .522E-5
MEAN_MOTION_DDOT = 0

CCSDS_OMM_VERS = 2.0
CREATION_DATE  = 
ORIGINATOR     = 

OBJECT_NAME    = COSMOS 1867
OBJECT_ID      = 1987-060A
CENTER_NAME    = EARTH
REF_FRAME      = TEME
TIME_SYSTEM    = UTC
MEAN_ELEMENT_THEORY = SGP/SGP4

EPOCH          = 2025-12-26T18:50:16.791648
MEAN_MOTION    = 14.31488422
ECCENTRICITY   = .0013668
INCLINATION    = 65.0093
RA_OF_ASC_NODE = 150.8701
ARG_OF_PERICENTER = 272.4787
MEAN_ANOMALY   = 87.4732

EPHEMERIS_TYPE = 0
CLASSIFICATION_TYPE = U
NORAD_CAT_ID   = 18187
ELEMENT_SET_NO = 999
REV_AT_EPOCH   = 950
BSTAR          = .43283E-4
MEAN_MOTION_DOT = .15E-6
MEAN_MOTION_DDOT = 0

CCSDS_OMM_VERS = 2.0
CREATION_DATE  = 
ORIGINATOR     = 

OBJECT_NAME    = SL-14 R/B
OBJECT_ID      = 1988-001B
CENTER_NAME    = EARTH
REF_FRAME      = TEME
TIME_SYSTEM    = UTC
MEAN_ELEMENT_THEORY = SGP/SGP4

EPOCH          = 2025-12-26T17:20:34.176192
MEAN_MOTION    = 14.85438040
ECCENTRICITY   = .0019452
INCLINATION    = 82.5133
RA_OF_ASC_NODE = 263.9965
ARG_OF_PERICENTER = 117.2678
MEAN_ANOMALY   = 243.0522

EPHEMERIS_TYPE = 0
CLASSIFICATION_TYPE = U
NORAD_CAT_ID   = 18749
ELEMENT_SET_NO = 999
REV_AT_EPOCH   = 3119
BSTAR          = .57343E-4
MEAN_MOTION_DOT = .52E-5
MEAN_MOTION_DDOT = 0

